[{"OBJECT_NAME":"FLOCK 4Q-11","OBJECT_ID":"2023-174T","EPOCH":"2026-04-25T16:14:08.843136","MEAN_MOTION":15.4744325,"ECCENTRICITY":0.00049572,"INCLINATION":97.3863,"RA_OF_ASC_NODE":203.2019,"ARG_OF_PERICENTER":2.4821,"MEAN_ANOMALY":357.6453,"EPHEMERIS_TYPE":0,"CLASSIFICATION_TYPE":"U","NORAD_CAT_ID":58273,"ELEMENT_SET_NO":999,"REV_AT_EPOCH":13746,"BSTAR":0.00042058058,"MEAN_MOTION_DOT":0.00021505,"MEAN_MOTION_DDOT":0},{"OBJECT_NAME":"FLOCK 4Q-36","OBJECT_ID":"2023-174U","EPOCH":"2026-04-25T18:48:58.692960","MEAN_MOTION":15.54267276,"ECCENTRICITY":0.00050884,"INCLINATION":97.3847,"RA_OF_ASC_NODE":206.416,"ARG_OF_PERICENTER":330.3226,"MEAN_ANOMALY":29.7739,"EPHEMERIS_TYPE":0,"CLASSIFICATION_TYPE":"U","NORAD_CAT_ID":58274,"ELEMENT_SET_NO":999,"REV_AT_EPOCH":13768,"BSTAR":0.00052655252,"MEAN_MOTION_DOT":0.00034384,"MEAN_MOTION_DDOT":0},{"OBJECT_NAME":"FLOCK 4Q-28","OBJECT_ID":"2023-174AA","EPOCH":"2026-04-25T19:20:16.282464","MEAN_MOTION":15.51886796,"ECCENTRICITY":0.00038065,"INCLINATION":97.388,"RA_OF_ASC_NODE":205.4137,"ARG_OF_PERICENTER":340.5653,"MEAN_ANOMALY":19.5454,"EPHEMERIS_TYPE":0,"CLASSIFICATION_TYPE":"U","NORAD_CAT_ID":58280,"ELEMENT_SET_NO":999,"REV_AT_EPOCH":13761,"BSTAR":0.00048669582,"MEAN_MOTION_DOT":0.00029134,"MEAN_MOTION_DDOT":0},{"OBJECT_NAME":"FLOCK 4Q-27","OBJECT_ID":"2023-174AC","EPOCH":"2026-04-25T19:17:23.736480","MEAN_MOTION":15.51777075,"ECCENTRICITY":0.00036524,"INCLINATION":97.3813,"RA_OF_ASC_NODE":204.905,"ARG_OF_PERICENTER":340.8182,"MEAN_ANOMALY":19.2932,"EPHEMERIS_TYPE":0,"CLASSIFICATION_TYPE":"U","NORAD_CAT_ID":58282,"ELEMENT_SET_NO":999,"REV_AT_EPOCH":13762,"BSTAR":0.00050961585,"MEAN_MOTION_DOT":0.00030396,"MEAN_MOTION_DDOT":0},{"OBJECT_NAME":"FLOCK 4Q-26","OBJECT_ID":"2023-174AE","EPOCH":"2026-04-25T18:47:18.825792","MEAN_MOTION":15.53927383,"ECCENTRICITY":0.00046426,"INCLINATION":97.387,"RA_OF_ASC_NODE":206.4953,"ARG_OF_PERICENTER":340.806,"MEAN_ANOMALY":19.3018,"EPHEMERIS_TYPE":0,"CLASSIFICATION_TYPE":"U","NORAD_CAT_ID":58284,"ELEMENT_SET_NO":999,"REV_AT_EPOCH":13768,"BSTAR":0.00052818851,"MEAN_MOTION_DOT":0.00034063,"MEAN_MOTION_DDOT":0},{"OBJECT_NAME":"FLOCK 4Q-31","OBJECT_ID":"2023-174AF","EPOCH":"2026-04-25T11:57:55.476864","MEAN_MOTION":15.53870897,"ECCENTRICITY":0.00044428,"INCLINATION":97.3906,"RA_OF_ASC_NODE":205.8541,"ARG_OF_PERICENTER":341.8605,"MEAN_ANOMALY":18.2489,"EPHEMERIS_TYPE":0,"CLASSIFICATION_TYPE":"U","NORAD_CAT_ID":58285,"ELEMENT_SET_NO":999,"REV_AT_EPOCH":13759,"BSTAR":0.00051684995,"MEAN_MOTION_DOT":0.00033257,"MEAN_MOTION_DDOT":0},{"OBJECT_NAME":"FLOCK 4Q-30","OBJECT_ID":"2023-174AG","EPOCH":"2026-04-25T19:15:13.030560","MEAN_MOTION":15.54091441,"ECCENTRICITY":0.00031512,"INCLINATION":97.3923,"RA_OF_ASC_NODE":206.3761,"ARG_OF_PERICENTER":340.4085,"MEAN_ANOMALY":19.7047,"EPHEMERIS_TYPE":0,"CLASSIFICATION_TYPE":"U","NORAD_CAT_ID":58286,"ELEMENT_SET_NO":999,"REV_AT_EPOCH":13765,"BSTAR":0.00059512866,"MEAN_MOTION_DOT":0.00038635,"MEAN_MOTION_DDOT":0},{"OBJECT_NAME":"PELICAN-1","OBJECT_ID":"2023-174AS","EPOCH":"2026-04-25T19:38:13.388064","MEAN_MOTION":15.70665447,"ECCENTRICITY":0.00034734,"INCLINATION":97.4004,"RA_OF_ASC_NODE":212.9374,"ARG_OF_PERICENTER":145.4047,"MEAN_ANOMALY":214.7442,"EPHEMERIS_TYPE":0,"CLASSIFICATION_TYPE":"U","NORAD_CAT_ID":58296,"ELEMENT_SET_NO":999,"REV_AT_EPOCH":13793,"BSTAR":0.00090579426,"MEAN_MOTION_DOT":0.00112939,"MEAN_MOTION_DDOT":0},{"OBJECT_NAME":"FLOCK 4Q-29","OBJECT_ID":"2023-174BA","EPOCH":"2026-04-25T22:27:57.038112","MEAN_MOTION":15.52551366,"ECCENTRICITY":0.00039667,"INCLINATION":97.3926,"RA_OF_ASC_NODE":206.0035,"ARG_OF_PERICENTER":327.5893,"MEAN_ANOMALY":32.5116,"EPHEMERIS_TYPE":0,"CLASSIFICATION_TYPE":"U","NORAD_CAT_ID":58304,"ELEMENT_SET_NO":999,"REV_AT_EPOCH":13764,"BSTAR":0.00054676877,"MEAN_MOTION_DOT":0.0003355,"MEAN_MOTION_DDOT":0},{"OBJECT_NAME":"FLOCK 4Q-22","OBJECT_ID":"2023-174BC","EPOCH":"2026-04-25T19:21:30.716928","MEAN_MOTION":15.5578176,"ECCENTRICITY":0.00029615,"INCLINATION":97.3812,"RA_OF_ASC_NODE":206.2019,"ARG_OF_PERICENTER":324.3945,"MEAN_ANOMALY":35.7111,"EPHEMERIS_TYPE":0,"CLASSIFICATION_TYPE":"U","NORAD_CAT_ID":58306,"ELEMENT_SET_NO":999,"REV_AT_EPOCH":13771,"BSTAR":0.0005354035,"MEAN_MOTION_DOT":0.00036954,"MEAN_MOTION_DDOT":0},{"OBJECT_NAME":"FLOCK 4Q-33","OBJECT_ID":"2023-174BE","EPOCH":"2026-04-25T18:18:02.344896","MEAN_MOTION":15.5443954,"ECCENTRICITY":0.00040972,"INCLINATION":97.3847,"RA_OF_ASC_NODE":206.0346,"ARG_OF_PERICENTER":321.3496,"MEAN_ANOMALY":38.7464,"EPHEMERIS_TYPE":0,"CLASSIFICATION_TYPE":"U","NORAD_CAT_ID":58308,"ELEMENT_SET_NO":999,"REV_AT_EPOCH":13768,"BSTAR":0.00046501094,"MEAN_MOTION_DOT":0.00030524,"MEAN_MOTION_DDOT":0},{"OBJECT_NAME":"FLOCK 4Q-35","OBJECT_ID":"2023-174BF","EPOCH":"2026-04-25T18:45:50.288256","MEAN_MOTION":15.53398048,"ECCENTRICITY":0.00040979,"INCLINATION":97.3873,"RA_OF_ASC_NODE":206.1562,"ARG_OF_PERICENTER":336.642,"MEAN_ANOMALY":23.4647,"EPHEMERIS_TYPE":0,"CLASSIFICATION_TYPE":"U","NORAD_CAT_ID":58309,"ELEMENT_SET_NO":999,"REV_AT_EPOCH":13766,"BSTAR":0.00051791085,"MEAN_MOTION_DOT":0.00032756,"MEAN_MOTION_DDOT":0},{"OBJECT_NAME":"FLOCK 4Q-7","OBJECT_ID":"2023-174BQ","EPOCH":"2026-04-25T18:49:58.289952","MEAN_MOTION":15.52280395,"ECCENTRICITY":0.00047798,"INCLINATION":97.3905,"RA_OF_ASC_NODE":205.6291,"ARG_OF_PERICENTER":324.7859,"MEAN_ANOMALY":35.3077,"EPHEMERIS_TYPE":0,"CLASSIFICATION_TYPE":"U","NORAD_CAT_ID":58318,"ELEMENT_SET_NO":999,"REV_AT_EPOCH":13761,"BSTAR":0.00051043426,"MEAN_MOTION_DOT":0.00031006,"MEAN_MOTION_DDOT":0},{"OBJECT_NAME":"FLOCK 4Q-2","OBJECT_ID":"2023-174BS","EPOCH":"2026-04-25T22:00:44.441856","MEAN_MOTION":15.47345206,"ECCENTRICITY":0.00045419,"INCLINATION":97.3827,"RA_OF_ASC_NODE":203.2115,"ARG_OF_PERICENTER":332.3272,"MEAN_ANOMALY":27.7736,"EPHEMERIS_TYPE":0,"CLASSIFICATION_TYPE":"U","NORAD_CAT_ID":58320,"ELEMENT_SET_NO":999,"REV_AT_EPOCH":13751,"BSTAR":0.00051585825,"MEAN_MOTION_DOT":0.00026323,"MEAN_MOTION_DDOT":0},{"OBJECT_NAME":"FLOCK 4Q-9","OBJECT_ID":"2023-174BU","EPOCH":"2026-04-25T22:39:43.381440","MEAN_MOTION":15.47226242,"ECCENTRICITY":0.00046084,"INCLINATION":97.3864,"RA_OF_ASC_NODE":203.2874,"ARG_OF_PERICENTER":332.6277,"MEAN_ANOMALY":27.4729,"EPHEMERIS_TYPE":0,"CLASSIFICATION_TYPE":"U","NORAD_CAT_ID":58322,"ELEMENT_SET_NO":999,"REV_AT_EPOCH":13750,"BSTAR":0.00061284139,"MEAN_MOTION_DOT":0.0003118,"MEAN_MOTION_DDOT":0},{"OBJECT_NAME":"FLOCK 4Q-4","OBJECT_ID":"2023-174BZ","EPOCH":"2026-04-25T18:27:45.414432","MEAN_MOTION":15.46447098,"ECCENTRICITY":0.00049464,"INCLINATION":97.3816,"RA_OF_ASC_NODE":202.4131,"ARG_OF_PERICENTER":5.0388,"MEAN_ANOMALY":355.091,"EPHEMERIS_TYPE":0,"CLASSIFICATION_TYPE":"U","NORAD_CAT_ID":58327,"ELEMENT_SET_NO":999,"REV_AT_EPOCH":13745,"BSTAR":0.00041564259,"MEAN_MOTION_DOT":0.00020531,"MEAN_MOTION_DDOT":0}]
